0 BREEZE-M R/B
1 37219U 10061B   13281.40861399 -.00000247  00000-0  00000+0 0  4465
2 37219 017.0407 190.2091 5515902 246.8710 296.4256 01.94590888 20514
0 BREEZE-M R/B
1 37219U 10061B   13285.16319232 -.00000074  00000-0  00000+0 0  4475
2 37219 017.0399 189.7219 5515118 247.7358 046.6071 01.94588859 20588
0 BREEZE-M R/B
1 37219U 10061B   13285.62123471 -.00000040  00000-0  00000+0 0  4488
2 37219 017.0361 189.6286 5516430 247.8985 007.4590 01.94588569 20595
0 BREEZE-M R/B
1 37219U 10061B   13290.21603543  .00000134  00000-0  00000+0 0  4496
2 37219 017.0317 189.0009 5517064 249.0143 346.1833 01.94587484 20685
0 BREEZE-M R/B
1 37219U 10061B   13293.31128343 -.00000020  00000-0  00000+0 0  4507
2 37219 017.0285 188.5775 5517456 249.7659 354.4593 01.94589314 20743
